HAWK-2B                 
1 47508U 21006CZ  26068.67629241  .00009474  00000+0  29651-3 0  9991
2 47508  97.2334 114.1140 0007102 185.9063 174.2098 15.33301353284246
STARLINK-34336          
1 64462U 25130AA  26068.34635599  .00017049  00000+0  58711-3 0  9994
2 64462  53.1586  92.6753 0001159  80.7300 279.3832 15.30161213 40616
